STARLINK-5508           
1 55639U 23021M   26068.70241793  .00004942  00000+0  42168-3 0  9993
2 55639  70.0003 184.4106 0003393 268.7257  91.3513 14.98333687168794
EZIE-C                  
1 63249U 25052AR  26068.70433986  .00007941  00000+0  70721-3 0  9990
2 63249  97.6981 322.3863 0003211 161.3597 198.7743 14.96297342 53781
